     2.10           NAVIGATION                              RINEX VERSION / TYPE
fic2rin                                 06/19/2008 01:09:27 PGM / RUN BY / DATE
                                                            END OF HEADER
22 08  6 18 11 59 44.0  .211441423744D-03  .227373675443D-12  .000000000000D+00
     .380000000000D+02  .143125000000D+03  .477769901034D-08  .172185419162D+01
     .737234950066D-05  .485808704980D-02  .680238008499D-05  .515367368889D+04
     .302384000000D+06 -.540167093277D-07  .550411481453D+00 -.149011611938D-06
     .945400009465D+00  .241562500000D+03 -.181688142358D+01 -.811176645906D-08
     .125005206969D-09  .100000000000D+01  .148400000000D+04  .000000000000D+00
     .240000000000D+01  .000000000000D+00 -.181607902050D-07  .380000000000D+02
     .300576000000D+06  .400000000000D+01
 9 08  6 18 11 59 44.0  .135134905577D-05  .170530256582D-11  .000000000000D+00
     .210000000000D+02 -.132875000000D+03  .385587489838D-08 -.210615305142D+01
    -.671856105328D-05  .200130782323D-01  .602751970291D-05  .515366933823D+04
     .302384000000D+06  .331550836563D-06  .256680309356D+01  .242143869400D-07
     .971875128443D+00  .264875000000D+03  .141048548463D+01 -.747674000766D-08
    -.225723688012D-09  .100000000000D+01  .148400000000D+04  .000000000000D+00
     .240000000000D+01  .000000000000D+00 -.558793544769D-08  .210000000000D+02
     .301956000000D+06  .400000000000D+01
 9 08  6 18 13 59 44.0  .136392191052D-05  .170530256582D-11  .000000000000D+00
     .220000000000D+02 -.117531250000D+03  .425410577201D-08 -.105602338327D+01
    -.595860183239D-05  .200139670633D-01  .624544918537D-05  .515366733170D+04
     .309584000000D+06 -.255182385445D-06  .256674775137D+01  .361353158951D-06
     .971869977508D+00  .263281250000D+03  .141053721927D+01 -.817284043161D-08
    -.320370487574D-09  .100000000000D+01  .148400000000D+04  .000000000000D+00
     .240000000000D+01  .000000000000D+00 -.558793544769D-08  .220000000000D+02
     .302406000000D+06  .400000000000D+01
22 08  6 18 13 59 44.0  .211442820728D-03  .227373675443D-12  .000000000000D+00
     .390000000000D+02  .132718750000D+03  .474341186786D-08  .277219610578D+01
     .678747892380D-05  .485917809419D-02  .691413879395D-05  .515367126083D+04
     .309584000000D+06  .558793544769D-07  .550353744465D+00 -.745058059692D-07
     .945401258797D+00  .239843750000D+03 -.181704057736D+01 -.801104797802D-08
     .109647424398D-09  .100000000000D+01  .148400000000D+04  .000000000000D+00
     .240000000000D+01  .000000000000D+00 -.181607902050D-07  .390000000000D+02
     .302406000000D+06  .400000000000D+01
 2 08  6 18 14  0  0.0  .205875840038D-03 -.795807864051D-12  .000000000000D+00
     .630000000000D+02  .968750000000D+01  .486198823561D-08  .180482964697D+01
     .389292836189D-06  .877529266290D-02  .890344381332D-05  .515374039459D+04
     .309600000000D+06  .298023223877D-07 -.548026859153D+00  .119209289551D-06
     .943368134749D+00  .198468750000D+03  .258498120536D+01 -.787425656582D-08
    -.541451125041D-09  .100000000000D+01  .148400000000D+04  .000000000000D+00
     .240000000000D+01  .000000000000D+00 -.172294676304D-07  .630000000000D+02
     .302406000000D+06  .400000000000D+01
 3 08  6 18 14  0  0.0  .243813730776D-03  .522959453519D-11  .000000000000D+00
     .270000000000D+02  .878125000000D+01  .563559188788D-08  .140915451445D+01
     .398606061935D-06  .106913744239D-01  .503659248352D-05  .515367693901D+04
     .309600000000D+06 -.158324837685D-06 -.169231208684D+01  .540167093277D-07
     .925425132906D+00  .264562500000D+03  .817599832772D+00 -.855857078454D-08
     .138577200868D-09  .100000000000D+01  .148400000000D+04  .000000000000D+00
     .240000000000D+01  .000000000000D+00 -.419095158577D-08  .270000000000D+02
     .302406000000D+06  .400000000000D+01
 4 08  6 18 14  0  0.0 -.939774326980D-04 -.920863385545D-11  .000000000000D+00
     .900000000000D+02  .956250000000D+01  .485305929226D-08 -.178535915677D+01
     .143423676491D-06  .806821917649D-02  .902451574802D-05  .515379245377D+04
     .309600000000D+06  .167638063431D-07 -.529198726040D+00 -.109896063805D-06
     .942683793375D+00  .192312500000D+03  .377536948146D+00 -.793140180329D-08
    -.344657213499D-09  .100000000000D+01  .148400000000D+04  .000000000000D+00
     .340000000000D+01  .000000000000D+00 -.605359673500D-08  .900000000000D+02
     .302406000000D+06  .400000000000D+01
 5 08  6 18 14  0  0.0 -.387933105230D-03  .103455022327D-10  .000000000000D+00
     .470000000000D+02 -.323125000000D+02  .449804450447D-08 -.215153727456D+01
    -.166893005371D-05  .886213511694D-02  .990368425846D-05  .515357672310D+04
     .309600000000D+06  .134110450745D-06 -.272503654377D+01 -.141561031342D-06
     .943086732216D+00  .179156250000D+03  .122856122744D+01 -.766496213358D-08
     .409659921123D-09  .100000000000D+01  .148400000000D+04  .000000000000D+00
     .240000000000D+01  .000000000000D+00 -.419095158577D-08  .470000000000D+02
     .302406000000D+06  .400000000000D+01
 6 08  6 18 14  0  0.0  .149797182530D-03  .591171556152D-11  .000000000000D+00
     .590000000000D+02  .681250000000D+01  .537950979246D-08 -.220686225573D+01
     .378116965294D-06  .592578016222D-02  .441074371338D-05  .515372112274D+04
     .309600000000D+06  .117346644402D-06 -.162747004675D+01  .186264514923D-07
     .932969136652D+00  .274187500000D+03 -.165626875948D+01 -.825105797540D-08
     .208222959036D-09  .100000000000D+01  .148400000000D+04  .000000000000D+00
     .240000000000D+01  .000000000000D+00 -.465661287308D-08  .590000000000D+02
     .302406000000D+06  .400000000000D+01
 7 08  6 18 14  0  0.0 -.187098048627D-04  .704858393874D-11  .000000000000D+00
     .350000000000D+02 -.144468750000D+03  .419910348094D-08  .179531544952D+00
    -.774301588535D-05  .178750418127D-02  .629946589470D-05  .515371674347D+04
     .309600000000D+06  .745058059692D-07  .260325123522D+01 -.130385160446D-07
     .962865286633D+00  .262531250000D+03  .261954013900D+01 -.794354516626D-08
    -.361443627006D-09  .100000000000D+01  .148400000000D+04  .000000000000D+00
     .240000000000D+01  .000000000000D+00 -.107102096081D-07  .350000000000D+02
     .302406000000D+06  .400000000000D+01
 8 08  6 18 14  0  0.0 -.157994683832D-03 -.170530256582D-11  .000000000000D+00
     .660000000000D+02 -.127093750000D+03  .373908431930D-08 -.665418369323D+00
    -.675767660141D-05  .102210058831D-01  .698678195477D-05  .515360957336D+04
     .309600000000D+06  .819563865662D-07  .265647873126D+01 -.251457095146D-06
     .984081389203D+00  .259406250000D+03  .288383023163D+01 -.769674917193D-08
    -.245010205659D-09  .100000000000D+01  .148400000000D+04  .000000000000D+00
     .340000000000D+01  .000000000000D+00 -.372529029846D-08  .660000000000D+02
     .302406000000D+06  .400000000000D+01
10 08  6 18 14  0  0.0 -.229571014643D-05 -.227373675443D-12  .000000000000D+00
     .860000000000D+02  .126312500000D+03  .436482466961D-08  .262863035646D+01
     .654347240925D-05  .798319943715D-02  .760518014431D-05  .515365953445D+04
     .309600000000D+06 -.100582838058D-06  .533302515539D+00 -.111758708954D-06
     .963684263283D+00  .235062500000D+03  .559811436702D+00 -.774639409698D-08
     .157506560780D-09  .100000000000D+01  .148400000000D+04  .000000000000D+00
     .340000000000D+01  .000000000000D+00 -.232830643654D-08  .860000000000D+02
     .302406000000D+06  .400000000000D+01
11 08  6 18 14  0  0.0  .245068222284D-04 -.454747350886D-12  .000000000000D+00
     .370000000000D+02 -.965625000000D+01  .625597487218D-08 -.281634576651D+00
    -.376254320145D-06  .810085725971D-02  .751949846745D-05  .515362938881D+04
     .309600000000D+06  .838190317154D-07 -.730740332851D+00  .651925802231D-07
     .890976630559D+00  .198062500000D+03  .592021488597D+00 -.879215194271D-08
    -.453233164695D-09  .100000000000D+01  .148400000000D+04  .000000000000D+00
     .240000000000D+01  .000000000000D+00 -.116415321827D-07  .370000000000D+02
     .302406000000D+06  .400000000000D+01
12 08  6 18 14  0  0.0 -.358371529728D-03  .454747350886D-12  .000000000000D+00
     .400000000000D+02 -.261875000000D+02  .416945938901D-08  .179941502874D+00
    -.142306089401D-05  .340013788082D-02  .989995896816D-05  .515358927345D+04
     .309600000000D+06  .372529029846D-07 -.263117750603D+01 -.143423676491D-06
     .964289580749D+00  .194125000000D+03 -.933517801152D+00 -.769210612138D-08
     .380730144653D-09  .100000000000D+01  .148400000000D+04  .000000000000D+00
     .240000000000D+01  .000000000000D+00 -.116415321827D-07  .400000000000D+02
     .302406000000D+06  .400000000000D+01
13 08  6 18 14  0  0.0  .260316766798D-03  .159161572810D-11  .000000000000D+00
     .470000000000D+02  .956250000000D+01  .399802367659D-08  .230387533608D+01
     .296160578728D-06  .383913004771D-02 -.359490513802D-06  .515362195015D+04
     .309600000000D+06 -.651925802231D-07  .160303741742D+01 -.800937414169D-07
     .995200773513D+00  .399406250000D+03  .147886548823D+01 -.805069248651D-08
    -.135362781260D-09  .100000000000D+01  .148400000000D+04  .000000000000D+00
     .240000000000D+01  .000000000000D+00 -.111758708954D-07  .470000000000D+02
     .302406000000D+06  .400000000000D+01
14 08  6 18 14  0  0.0 -.254053156823D-03  .432009983342D-11  .000000000000D+00
     .123000000000D+03  .481250000000D+01  .414445834761D-08  .207667439778D+01
     .145286321640D-06  .376475579105D-02  .139698386192D-06  .515370417404D+04
     .309600000000D+06 -.856816768646D-07  .158559106603D+01 -.128522515297D-06
     .988935603012D+00  .392875000000D+03 -.217542364297D+01 -.808283668259D-08
    -.564309220030D-10  .100000000000D+01  .148400000000D+04  .000000000000D+00
     .340000000000D+01  .000000000000D+00 -.884756445885D-08  .123000000000D+03
     .302406000000D+06  .400000000000D+01
